     2.100          NAVIGATION                              RINEX VERSION / TYPE
fic2rin                                 08/01/2015 00:28:49 PGM / RUN BY / DATE
                                                            END OF HEADER
15 15  7 31 12  0  0.0 -.263487454504D-03 -.204636307899D-11  .000000000000D+00
     .220000000000D+02 -.430000000000D+02  .563059167960D-08 -.105090432131D+01
    -.225007534027D-05  .726406858303D-02  .509433448315D-05  .515367480469D+04
     .475200000000D+06  .175088644028D-06 -.101821090080D+01 -.819563865662D-07
     .932445479274D+00  .260468750000D+03  .393467467717D+00 -.863428822419D-08
    -.347157317639D-09  .100000000000D+01  .185500000000D+04  .000000000000D+00
     .240000000000D+01  .000000000000D+00 -.107102096081D-07  .220000000000D+02
     .468006000000D+06  .400000000000D+01
16 15  7 31 12  0  0.0 -.102621037513D-03  .409272615798D-11  .000000000000D+00
     .320000000000D+02  .992187500000D+02  .425732019162D-08  .603427170364D+00
     .534206628799D-05  .810689222999D-02  .271387398243D-05  .515359354973D+04
     .475200000000D+06  .894069671631D-07  .119179332700D+01  .109896063805D-06
     .990294972823D+00  .338437500000D+03  .323954077119D+00 -.825320092180D-08
     .192865176466D-09  .100000000000D+01  .185500000000D+04  .000000000000D+00
     .240000000000D+01  .000000000000D+00 -.102445483208D-07  .320000000000D+02
     .468006000000D+06  .400000000000D+01
17 15  7 31 12  0  0.0 -.182316638529D-03 -.147792889038D-11  .000000000000D+00
     .360000000000D+02 -.117187500000D+03  .463019286612D-08 -.398657898136D+00
    -.605732202530D-05  .102730068611D-01  .312738120556D-05  .515355056000D+04
     .475200000000D+06 -.260770320892D-07  .221801554171D+01  .150874257088D-06
     .973080804081D+00  .326312500000D+03 -.201111275853D+01 -.861857328389D-08
    -.518950187787D-09  .100000000000D+01  .185500000000D+04  .000000000000D+00
     .240000000000D+01  .000000000000D+00 -.107102096081D-07  .360000000000D+02
     .468006000000D+06  .400000000000D+01
18 15  7 31 12  0  0.0  .421667471528D-03  .306954461848D-11  .000000000000D+00
     .530000000000D+02  .435625000000D+02  .561237663516D-08  .117949741862D+01
     .223331153393D-05  .163703749422D-01  .713579356670D-05  .515361652374D+04
     .475200000000D+06 -.361353158951D-06 -.203839422332D+01 -.204890966415D-07
     .924812410149D+00  .224406250000D+03 -.194472320274D+01 -.883393939761D-08
     .556451749877D-09  .100000000000D+01  .185500000000D+04  .000000000000D+00
     .240000000000D+01  .000000000000D+00 -.111758708954D-07  .530000000000D+02
     .468006000000D+06  .400000000000D+01
19 15  7 31 12  0  0.0 -.517220236361D-03 -.909494701773D-12  .000000000000D+00
     .290000000000D+02 -.119375000000D+03  .445875715370D-08 -.121438016479D+01
    -.619329512119D-05  .115957249654D-01  .386685132980D-05  .515375264549D+04
     .475200000000D+06  .219792127609D-06  .226741831743D+01 -.409781932831D-07
     .970194446230D+00  .308250000000D+03  .590727843306D+00 -.825927260328D-08
    -.485377360772D-09  .100000000000D+01  .185500000000D+04  .000000000000D+00
     .240000000000D+01  .000000000000D+00 -.149011611938D-07  .290000000000D+02
     .468006000000D+06  .400000000000D+01
20 15  7 31 12  0  0.0  .343025196344D-03  .318323145621D-11  .000000000000D+00
     .160000000000D+02  .504687500000D+02  .541522556588D-08 -.992832405695D+00
     .290572643280D-05  .478467135690D-02  .743567943573D-05  .515361448669D+04
     .475200000000D+06 -.186264514923D-08 -.209064751540D+01  .596046447754D-07
     .926061660265D+00  .216531250000D+03  .119045014438D+01 -.853785563596D-08
     .712886837455D-09  .100000000000D+01  .185500000000D+04  .000000000000D+00
     .240000000000D+01  .000000000000D+00 -.838190317154D-08  .160000000000D+02
     .468006000000D+06  .400000000000D+01
21 15  7 31 12  0  0.0 -.468224752694D-03 -.306954461848D-11  .000000000000D+00
     .940000000000D+02 -.882187500000D+02  .450697344782D-08  .221152646282D+01
    -.477768480778D-05  .225043833489D-01  .121686607599D-04  .515379415894D+04
     .475200000000D+06  .223517417908D-06 -.308115631711D+01 -.402331352234D-06
     .934827224015D+00  .127343750000D+03 -.189056282871D+01 -.771675000504D-08
     .107861635727D-09  .100000000000D+01  .185500000000D+04  .000000000000D+00
     .485000000000D+01  .000000000000D+00 -.116415321827D-07  .940000000000D+02
     .468006000000D+06  .400000000000D+01
22 15  7 31 12  0  0.0  .376562122256D-03  .352429196937D-11  .000000000000D+00
     .590000000000D+02  .520312500000D+02  .565059251272D-08  .707199081452D+00
     .271201133728D-05  .804778933525D-02  .683963298798D-05  .515368049812D+04
     .475200000000D+06 -.165775418282D-06 -.203734243643D+01  .260770320892D-07
     .922633313209D+00  .228125000000D+03 -.203900840168D+01 -.872429197321D-08
     .551808699333D-09  .100000000000D+01  .185500000000D+04  .000000000000D+00
     .240000000000D+01  .000000000000D+00 -.176951289177D-07  .590000000000D+02
     .468006000000D+06  .400000000000D+01
23 15  7 31 12  0  0.0 -.124335289001D-03 -.227373675443D-11  .000000000000D+00
     .250000000000D+02 -.421562500000D+02  .518878756240D-08 -.151966156432D+01
    -.241398811340D-05  .104448555503D-01  .599771738052D-05  .515357468033D+04
     .475200000000D+06  .132247805595D-06 -.964999610964D+00 -.614672899246D-07
     .947649368897D+00  .250562500000D+03 -.264618229835D+01 -.831356057888D-08
    -.312870175156D-09  .100000000000D+01  .185500000000D+04  .000000000000D+00
     .240000000000D+01  .000000000000D+00 -.200234353542D-07  .250000000000D+02
     .468006000000D+06  .400000000000D+01
24 15  7 31 12  0  0.0 -.222073867917D-05 -.682121026330D-12  .000000000000D+00
     .850000000000D+02  .533437500000D+02  .447411493627D-08 -.224657356052D+01
     .266544520855D-05  .328611570876D-02  .131428241730D-04  .515366876411D+04
     .475200000000D+06 -.130385160446D-07  .614370924044D-01 -.670552253723D-07
     .953178824730D+00  .122781250000D+03  .335385389211D+00 -.785246994404D-08
    -.171792870148D-09  .100000000000D+01  .185500000000D+04  .000000000000D+00
     .340000000000D+01  .000000000000D+00  .232830643654D-08  .850000000000D+02
     .468006000000D+06  .400000000000D+01
25 15  7 31 12  0  0.0 -.196015462279D-04 -.466116034659D-11  .000000000000D+00
     .270000000000D+02  .117843750000D+03  .439696886569D-08  .196579355332D+01
     .603310763836D-05  .465875433292D-02  .391714274883D-05  .515364875603D+04
     .475200000000D+06 -.189989805222D-06  .112569922799D+01 -.186264514923D-08
     .978256944717D+00  .312312500000D+03  .758787069110D+00 -.819069831832D-08
     .354657630057D-09  .100000000000D+01  .185500000000D+04  .000000000000D+00
     .240000000000D+01  .000000000000D+00  .512227416039D-08  .270000000000D+02
     .468006000000D+06  .400000000000D+01
26 15  7 31 12  0  0.0 -.177044421434D-04 -.693489710102D-11  .000000000000D+00
     .800000000000D+02  .115031250000D+03  .488734643474D-08  .160213648810D+00
     .617653131485D-05  .282987370156D-03  .314787030220D-05  .515361052322D+04
     .475200000000D+06  .894069671631D-07  .112198814276D+01 -.372529029846D-08
     .960357344727D+00  .316312500000D+03  .125441215585D+01 -.850892585949D-08
     .266082511976D-09  .100000000000D+01  .185500000000D+04  .000000000000D+00
     .240000000000D+01  .000000000000D+00  .745058059692D-08  .800000000000D+02
     .468006000000D+06  .400000000000D+01
27 15  7 31 12  0  0.0  .836281105876D-05  .284217094304D-11  .000000000000D+00
     .107000000000D+03 -.106781250000D+03  .462733560424D-08 -.382536492626D+00
    -.572204589844D-05  .259409844875D-02  .313296914101D-05  .515369516754D+04
     .475200000000D+06  .931322574615D-08  .216983756343D+01  .223517417908D-07
     .967954883960D+00  .321781250000D+03  .308247024137D+00 -.841177895579D-08
    -.516450083648D-09  .100000000000D+01  .185500000000D+04  .000000000000D+00
     .340000000000D+01  .000000000000D+00  .139698386192D-08  .107000000000D+03
     .468006000000D+06  .400000000000D+01
29 15  7 31 12  0  0.0  .625500455499D-03  .216004991671D-11  .000000000000D+00
     .600000000000D+02 -.110000000000D+03  .440125475850D-08  .212874233521D+01
    -.572204589844D-05  .101384590380D-02  .322982668877D-05  .515372438622D+04
     .475200000000D+06 -.372529029846D-08  .222743836237D+01 -.745058059692D-08
     .973956024081D+00  .324000000000D+03 -.473799795823D+00 -.823927177017D-08
    -.465376527657D-09  .100000000000D+01  .185500000000D+04  .000000000000D+00
     .240000000000D+01  .000000000000D+00 -.102445483208D-07  .600000000000D+02
     .468006000000D+06  .400000000000D+01
30 15  7 31 12  0  0.0 -.300258398056D-05  .738964445191D-11  .000000000000D+00
     .810000000000D+02  .880312500000D+02  .441446959466D-08 -.310318184787D+01
     .467151403427D-05  .164468702860D-02  .139232724905D-04  .515372371864D+04
     .475200000000D+06 -.670552253723D-07  .151771856627D+00 -.298023223877D-07
     .955770580138D+00  .110187500000D+03  .302096600249D+01 -.784532678935D-08
    -.992898501065D-10  .100000000000D+01  .185500000000D+04  .000000000000D+00
     .240000000000D+01  .000000000000D+00  .325962901115D-08  .810000000000D+02
     .468006000000D+06  .400000000000D+01
31 15  7 31 12  0  0.0  .308000948280D-03 -.125055521494D-11  .000000000000D+00
     .105000000000D+03  .690625000000D+02  .396945105786D-08  .307739273360D+01
     .369548797607D-05  .804881320801D-02  .129118561745D-04  .515356789780D+04
     .475200000000D+06 -.894069671631D-07  .111411030842D+00  .128522515297D-06
     .974893804309D+00  .137937500000D+03 -.524458590583D+00 -.751138430788D-08
    -.124648049234D-09  .100000000000D+01  .185500000000D+04  .000000000000D+00
     .240000000000D+01  .000000000000D+00 -.135041773319D-07  .105000000000D+03
     .468006000000D+06  .400000000000D+01
